{
  "type": "FeatureCollection",
  "features": [
    {
      "type": "Feature",
      "properties": {
        "norad_id": 57400,
        "name": "TIANMU-1 08",
        "group": "weather",
        "lat": 17.734305514442948,
        "lon": 29.774300259544468,
        "alt_km": 481.33411908606377,
        "timestamp": "2025-12-08T08:59:00.415174+00:00",
        "meta_object_name": "TIANMU-1 08",
        "meta_object_id": "2023-101B",
        "meta_epoch": "2025-12-07T21:54:11.626848",
        "meta_mean_motion": 15.27950423,
        "meta_eccentricity": 0.00075475,
        "meta_inclination": 97.2865,
        "meta_ra_of_asc_node": 31.6681,
        "meta_arg_of_pericenter": 97.3224,
        "meta_mean_anomaly": 262.8873,
        "meta_ephemeris_type": 0,
        "meta_classification_type": "U",
        "meta_norad_cat_id": 57400,
        "meta_element_set_no": 999,
        "meta_rev_at_epoch": 13241,
        "meta_bstar": 0.00035296261,
        "meta_mean_motion_dot": 9.565e-05,
        "meta_mean_motion_ddot": 0,
        "tle_line1": "1 57400U 23101B   25341.91263457  .00009565  00000+0  35296-3 0  9997",
        "tle_line2": "2 57400  97.2865  31.6681 0007547  97.3224 262.8873 15.27950423132415"
      },
      "geometry": {
        "type": "Point",
        "coordinates": [
          29.774300259544468,
          17.734305514442948
        ]
      }
    },
    {
      "type": "Feature",
      "properties": {
        "norad_id": 57401,
        "name": "TIANMU-1 09",
        "group": "weather",
        "lat": 82.70731509682325,
        "lon": -60.58673265061512,
        "alt_km": 469.72138718092174,
        "timestamp": "2025-12-08T08:59:00.415184+00:00",
        "meta_object_name": "TIANMU-1 09",
        "meta_object_id": "2023-101C",
        "meta_epoch": "2025-12-07T21:35:17.299392",
        "meta_mean_motion": 15.27975903,
        "meta_eccentricity": 0.0006792,
        "meta_inclination": 97.2822,
        "meta_ra_of_asc_node": 31.1712,
        "meta_arg_of_pericenter": 96.8828,
        "meta_mean_anomaly": 263.3185,
        "meta_ephemeris_type": 0,
        "meta_classification_type": "U",
        "meta_norad_cat_id": 57401,
        "meta_element_set_no": 999,
        "meta_rev_at_epoch": 13241,
        "meta_bstar": 0.0003756025,
        "meta_mean_motion_dot": 0.0001019,
        "meta_mean_motion_ddot": 0,
        "tle_line1": "1 57401U 23101C   25341.89950578  .00010190  00000+0  37560-3 0  9994",
        "tle_line2": "2 57401  97.2822  31.1712 0006792  96.8828 263.3185 15.27975903132416"
      },
      "geometry": {
        "type": "Point",
        "coordinates": [
          -60.58673265061512,
          82.70731509682325
        ]
      }
    },
    {
      "type": "Feature",
      "properties": {
        "norad_id": 57402,
        "name": "TIANMU-1 10",
        "group": "weather",
        "lat": -79.47785395435083,
        "lon": 168.9093451907933,
        "alt_km": 494.9555539292169,
        "timestamp": "2025-12-08T08:59:00.415194+00:00",
        "meta_object_name": "TIANMU-1 10",
        "meta_object_id": "2023-101D",
        "meta_epoch": "2025-12-07T22:24:31.161600",
        "meta_mean_motion": 15.27968013,
        "meta_eccentricity": 0.00085768,
        "meta_inclination": 97.2903,
        "meta_ra_of_asc_node": 32.0492,
        "meta_arg_of_pericenter": 97.1703,
        "meta_mean_anomaly": 263.0512,
        "meta_ephemeris_type": 0,
        "meta_classification_type": "U",
        "meta_norad_cat_id": 57402,
        "meta_element_set_no": 999,
        "meta_rev_at_epoch": 13241,
        "meta_bstar": 0.00035442259,
        "meta_mean_motion_dot": 9.612e-05,
        "meta_mean_motion_ddot": 0,
        "tle_line1": "1 57402U 23101D   25341.93369400  .00009612  00000+0  35442-3 0  9992",
        "tle_line2": "2 57402  97.2903  32.0492 0008576  97.1703 263.0512 15.27968013132415"
      },
      "geometry": {
        "type": "Point",
        "coordinates": [
          168.9093451907933,
          -79.47785395435083
        ]
      }
    },
    {
      "type": "Feature",
      "properties": {
        "norad_id": 57490,
        "name": "FENGYUN 3F",
        "group": "weather",
        "lat": 57.33006520628455,
        "lon": 36.90830466856894,
        "alt_km": 819.7695136003194,
        "timestamp": "2025-12-08T08:59:00.415205+00:00",
        "meta_object_name": "FENGYUN 3F",
        "meta_object_id": "2023-111A",
        "meta_epoch": "2025-12-07T22:33:43.613568",
        "meta_mean_motion": 14.19891587,
        "meta_eccentricity": 6.671e-05,
        "meta_inclination": 98.7091,
        "meta_ra_of_asc_node": 50.3108,
        "meta_arg_of_pericenter": 92.6094,
        "meta_mean_anomaly": 267.5158,
        "meta_ephemeris_type": 0,
        "meta_classification_type": "U",
        "meta_norad_cat_id": 57490,
        "meta_element_set_no": 999,
        "meta_rev_at_epoch": 12172,
        "meta_bstar": 0.00010281082,
        "meta_mean_motion_dot": 1.75e-06,
        "meta_mean_motion_ddot": 0,
        "tle_line1": "1 57490U 23111A   25341.94008812  .00000175  00000+0  10281-3 0  9997",
        "tle_line2": "2 57490  98.7091  50.3108 0000667  92.6094 267.5158 14.19891587121727"
      },
      "geometry": {
        "type": "Point",
        "coordinates": [
          36.90830466856894,
          57.33006520628455
        ]
      }
    },
    {
      "type": "Feature",
      "properties": {
        "norad_id": 58584,
        "name": "ARKTIKA-M 2",
        "group": "weather",
        "lat": 30.38298181912572,
        "lon": -167.4098481730866,
        "alt_km": 17331.93289387327,
        "timestamp": "2025-12-08T08:59:00.415217+00:00",
        "meta_object_name": "ARKTIKA-M 2",
        "meta_object_id": "2023-198A",
        "meta_epoch": "2025-12-06T20:18:59.579424",
        "meta_mean_motion": 2.00604738,
        "meta_eccentricity": 0.68644701,
        "meta_inclination": 63.2244,
        "meta_ra_of_asc_node": 175.5329,
        "meta_arg_of_pericenter": 268.127,
        "meta_mean_anomaly": 18.8311,
        "meta_ephemeris_type": 0,
        "meta_classification_type": "U",
        "meta_norad_cat_id": 58584,
        "meta_element_set_no": 999,
        "meta_rev_at_epoch": 1446,
        "meta_bstar": 0,
        "meta_mean_motion_dot": 1.78e-06,
        "meta_mean_motion_ddot": 0,
        "tle_line1": "1 58584U 23198A   25340.84652291  .00000178  00000+0  00000+0 0  9998",
        "tle_line2": "2 58584  63.2244 175.5329 6864470 268.1270  18.8311  2.00604738 14463"
      },
      "geometry": {
        "type": "Point",
        "coordinates": [
          -167.4098481730866,
          30.38298181912572
        ]
      }
    },
    {
      "type": "Feature",
      "properties": {
        "norad_id": 58645,
        "name": "TIANMU-1 11",
        "group": "weather",
        "lat": 43.59294615013373,
        "lon": -170.85655876116138,
        "alt_km": 494.2660064115116,
        "timestamp": "2025-12-08T08:59:00.415229+00:00",
        "meta_object_name": "TIANMU-1 11",
        "meta_object_id": "2023-205A",
        "meta_epoch": "2025-12-07T22:56:15.475488",
        "meta_mean_motion": 15.24510864,
        "meta_eccentricity": 0.00083613,
        "meta_inclination": 97.3604,
        "meta_ra_of_asc_node": 1.6631,
        "meta_arg_of_pericenter": 329.6292,
        "meta_mean_anomaly": 30.446,
        "meta_ephemeris_type": 0,
        "meta_classification_type": "U",
        "meta_norad_cat_id": 58645,
        "meta_element_set_no": 999,
        "meta_rev_at_epoch": 10836,
        "meta_bstar": 0.00034034783,
        "meta_mean_motion_dot": 8.309e-05,
        "meta_mean_motion_ddot": 0,
        "tle_line1": "1 58645U 23205A   25341.95573467  .00008309  00000+0  34035-3 0  9998",
        "tle_line2": "2 58645  97.3604   1.6631 0008361 329.6292  30.4460 15.24510864108368"
      },
      "geometry": {
        "type": "Point",
        "coordinates": [
          -170.85655876116138,
          43.59294615013373
        ]
      }
    },
    {
      "type": "Feature",
      "properties": {
        "norad_id": 58646,
        "name": "TIANMU-1 12",
        "group": "weather",
        "lat": -10.019028787898218,
        "lon": 3.1896498638182926,
        "alt_km": 493.39780367206913,
        "timestamp": "2025-12-08T08:59:00.415240+00:00",
        "meta_object_name": "TIANMU-1 12",
        "meta_object_id": "2023-205B",
        "meta_epoch": "2025-12-07T23:34:31.459584",
        "meta_mean_motion": 15.24427565,
        "meta_eccentricity": 0.00062146,
        "meta_inclination": 97.3592,
        "meta_ra_of_asc_node": 1.4963,
        "meta_arg_of_pericenter": 313.9322,
        "meta_mean_anomaly": 46.1402,
        "meta_ephemeris_type": 0,
        "meta_classification_type": "U",
        "meta_norad_cat_id": 58646,
        "meta_element_set_no": 999,
        "meta_rev_at_epoch": 10835,
        "meta_bstar": 0.00033327875,
        "meta_mean_motion_dot": 8.111e-05,
        "meta_mean_motion_ddot": 0,
        "tle_line1": "1 58646U 23205B   25341.98230856  .00008111  00000+0  33328-3 0  9999",
        "tle_line2": "2 58646  97.3592   1.4963 0006214 313.9322  46.1402 15.24427565108350"
      },
      "geometry": {
        "type": "Point",
        "coordinates": [
          3.1896498638182926,
          -10.019028787898218
        ]
      }
    }
  ]
}